{
  "type": "FeatureCollection",
  "features": [
    {
      "type": "Feature",
      "properties": {
        "norad_id": 39111,
        "name": "COSMOS 2251 DEB",
        "group": "cosmos-2251-debris",
        "lat": -3.645242087911583,
        "lon": -135.39627302079663,
        "alt_km": 535.0689371622329,
        "timestamp": "2025-12-11T13:55:02.564505+00:00",
        "meta_object_name": "COSMOS 2251 DEB",
        "meta_object_id": "1993-036BUA",
        "meta_epoch": "2025-12-01T22:58:55.551360",
        "meta_mean_motion": 15.11912111,
        "meta_eccentricity": 0.00109111,
        "meta_inclination": 74.0059,
        "meta_ra_of_asc_node": 63.5328,
        "meta_arg_of_pericenter": 39.1207,
        "meta_mean_anomaly": 321.0773,
        "meta_ephemeris_type": 0,
        "meta_classification_type": "U",
        "meta_norad_cat_id": 39111,
        "meta_element_set_no": 999,
        "meta_rev_at_epoch": 8982,
        "meta_bstar": 0.0056424119,
        "meta_mean_motion_dot": 0.00098096,
        "meta_mean_motion_ddot": 0,
        "tle_line1": "1 39111U 93036BUA 25335.95758740  .00098096  00000+0  56424-2 0  9993",
        "tle_line2": "2 39111  74.0059  63.5328 0010911  39.1207 321.0773 15.11912111 89826"
      },
      "geometry": {
        "type": "Point",
        "coordinates": [
          -135.39627302079663,
          -3.645242087911583
        ]
      }
    },
    {
      "type": "Feature",
      "properties": {
        "norad_id": 39546,
        "name": "COSMOS 2251 DEB",
        "group": "cosmos-2251-debris",
        "lat": 28.452434491854326,
        "lon": 148.07348981116502,
        "alt_km": 590.3079465308874,
        "timestamp": "2025-12-11T13:55:02.564515+00:00",
        "meta_object_name": "COSMOS 2251 DEB",
        "meta_object_id": "1993-036BUC",
        "meta_epoch": "2025-12-11T04:07:45.558912",
        "meta_mean_motion": 14.91978406,
        "meta_eccentricity": 0.00441035,
        "meta_inclination": 73.9968,
        "meta_ra_of_asc_node": 139.9467,
        "meta_arg_of_pericenter": 300.112,
        "meta_mean_anomaly": 59.5694,
        "meta_ephemeris_type": 0,
        "meta_classification_type": "U",
        "meta_norad_cat_id": 39546,
        "meta_element_set_no": 999,
        "meta_rev_at_epoch": 64413,
        "meta_bstar": 0.0021241967,
        "meta_mean_motion_dot": 0.00021962,
        "meta_mean_motion_ddot": 0,
        "tle_line1": "1 39546U 93036BUC 25345.17205508  .00021962  00000+0  21242-2 0  9997",
        "tle_line2": "2 39546  73.9968 139.9467 0044103 300.1120  59.5694 14.91978406644134"
      },
      "geometry": {
        "type": "Point",
        "coordinates": [
          148.07348981116502,
          28.452434491854326
        ]
      }
    },
    {
      "type": "Feature",
      "properties": {
        "norad_id": 39547,
        "name": "COSMOS 2251 DEB",
        "group": "cosmos-2251-debris",
        "lat": -26.857011812442213,
        "lon": 12.40446658401176,
        "alt_km": 560.3003537608465,
        "timestamp": "2025-12-11T13:55:02.564526+00:00",
        "meta_object_name": "COSMOS 2251 DEB",
        "meta_object_id": "1993-036BUD",
        "meta_epoch": "2025-12-08T21:19:55.077888",
        "meta_mean_motion": 15.02877714,
        "meta_eccentricity": 0.0005088,
        "meta_inclination": 74.0015,
        "meta_ra_of_asc_node": 26.2621,
        "meta_arg_of_pericenter": 23.5572,
        "meta_mean_anomaly": 154.1498,
        "meta_ephemeris_type": 0,
        "meta_classification_type": "U",
        "meta_norad_cat_id": 39547,
        "meta_element_set_no": 999,
        "meta_rev_at_epoch": 63967,
        "meta_bstar": 0.002907,
        "meta_mean_motion_dot": 0.0003919,
        "meta_mean_motion_ddot": 0,
        "tle_line1": "1 39547U 93036BUD 25342.88883192  .00039190  00000+0  29070-2 0  9993",
        "tle_line2": "2 39547  74.0015  26.2621 0005088  23.5572 154.1498 15.02877714639676"
      },
      "geometry": {
        "type": "Point",
        "coordinates": [
          12.40446658401176,
          -26.857011812442213
        ]
      }
    },
    {
      "type": "Feature",
      "properties": {
        "norad_id": 39553,
        "name": "COSMOS 2251 DEB",
        "group": "cosmos-2251-debris",
        "lat": -32.44804495955754,
        "lon": 162.51802263898702,
        "alt_km": 936.2755835583021,
        "timestamp": "2025-12-11T13:55:02.564535+00:00",
        "meta_object_name": "COSMOS 2251 DEB",
        "meta_object_id": "1993-036BUK",
        "meta_epoch": "2025-12-07T06:00:50.455872",
        "meta_mean_motion": 13.99876591,
        "meta_eccentricity": 0.02014092,
        "meta_inclination": 74.0304,
        "meta_ra_of_asc_node": 339.5232,
        "meta_arg_of_pericenter": 116.8065,
        "meta_mean_anomaly": 245.3825,
        "meta_ephemeris_type": 0,
        "meta_classification_type": "U",
        "meta_norad_cat_id": 39553,
        "meta_element_set_no": 999,
        "meta_rev_at_epoch": 75540,
        "meta_bstar": 0.00088887208,
        "meta_mean_motion_dot": 1.532e-05,
        "meta_mean_motion_ddot": 0,
        "tle_line1": "1 39553U 93036BUK 25341.25058398  .00001532  00000+0  88887-3 0  9993",
        "tle_line2": "2 39553  74.0304 339.5232 0201409 116.8065 245.3825 13.99876591755403"
      },
      "geometry": {
        "type": "Point",
        "coordinates": [
          162.51802263898702,
          -32.44804495955754
        ]
      }
    },
    {
      "type": "Feature",
      "properties": {
        "norad_id": 39554,
        "name": "COSMOS 2251 DEB",
        "group": "cosmos-2251-debris",
        "lat": 39.82893228685755,
        "lon": 73.17908994521072,
        "alt_km": 530.955433686252,
        "timestamp": "2025-12-11T13:55:02.564547+00:00",
        "meta_object_name": "COSMOS 2251 DEB",
        "meta_object_id": "1993-036BUL",
        "meta_epoch": "2025-12-10T06:12:03.924864",
        "meta_mean_motion": 15.10130993,
        "meta_eccentricity": 0.0002993,
        "meta_inclination": 74.0187,
        "meta_ra_of_asc_node": 269.7383,
        "meta_arg_of_pericenter": 74.7531,
        "meta_mean_anomaly": 81.5927,
        "meta_ephemeris_type": 0,
        "meta_classification_type": "U",
        "meta_norad_cat_id": 39554,
        "meta_element_set_no": 999,
        "meta_rev_at_epoch": 64347,
        "meta_bstar": 0.0046896,
        "meta_mean_motion_dot": 0.000773,
        "meta_mean_motion_ddot": 0,
        "tle_line1": "1 39554U 93036BUL 25344.25837876  .00077300  00000+0  46896-2 0  9992",
        "tle_line2": "2 39554  74.0187 269.7383 0002993  74.7531  81.5927 15.10130993643471"
      },
      "geometry": {
        "type": "Point",
        "coordinates": [
          73.17908994521072,
          39.82893228685755
        ]
      }
    },
    {
      "type": "Feature",
      "properties": {
        "norad_id": 39583,
        "name": "COSMOS 2251 DEB",
        "group": "cosmos-2251-debris",
        "lat": 26.72315432613297,
        "lon": -102.19821332300384,
        "alt_km": 602.6707683845543,
        "timestamp": "2025-12-11T13:55:02.564557+00:00",
        "meta_object_name": "COSMOS 2251 DEB",
        "meta_object_id": "1993-036BUN",
        "meta_epoch": "2025-12-08T00:17:58.189056",
        "meta_mean_motion": 14.60283512,
        "meta_eccentricity": 0.01370352,
        "meta_inclination": 73.9395,
        "meta_ra_of_asc_node": 256.3131,
        "meta_arg_of_pericenter": 10.5711,
        "meta_mean_anomaly": 349.8282,
        "meta_ephemeris_type": 0,
        "meta_classification_type": "U",
        "meta_norad_cat_id": 39583,
        "meta_element_set_no": 999,
        "meta_rev_at_epoch": 61710,
        "meta_bstar": 0.0025519779,
        "meta_mean_motion_dot": 0.00014063,
        "meta_mean_motion_ddot": 0,
        "tle_line1": "1 39583U 93036BUN 25342.01247904  .00014063  00000+0  25520-2 0  9991",
        "tle_line2": "2 39583  73.9395 256.3131 0137035  10.5711 349.8282 14.60283512617104"
      },
      "geometry": {
        "type": "Point",
        "coordinates": [
          -102.19821332300384,
          26.72315432613297
        ]
      }
    },
    {
      "type": "Feature",
      "properties": {
        "norad_id": 39585,
        "name": "COSMOS 2251 DEB",
        "group": "cosmos-2251-debris",
        "lat": -38.570821403051646,
        "lon": 136.71583601440554,
        "alt_km": 745.6412496081057,
        "timestamp": "2025-12-11T13:55:02.564567+00:00",
        "meta_object_name": "COSMOS 2251 DEB",
        "meta_object_id": "1993-036BUQ",
        "meta_epoch": "2025-12-09T14:49:35.322816",
        "meta_mean_motion": 14.58655096,
        "meta_eccentricity": 0.0065405,
        "meta_inclination": 74.0411,
        "meta_ra_of_asc_node": 307.2584,
        "meta_arg_of_pericenter": 69.0888,
        "meta_mean_anomaly": 291.7262,
        "meta_ephemeris_type": 0,
        "meta_classification_type": "U",
        "meta_norad_cat_id": 39585,
        "meta_element_set_no": 999,
        "meta_rev_at_epoch": 62475,
        "meta_bstar": 0.00049693,
        "meta_mean_motion_dot": 2.356e-05,
        "meta_mean_motion_ddot": 0,
        "tle_line1": "1 39585U 93036BUQ 25343.61776994  .00002356  00000+0  49693-3 0  9996",
        "tle_line2": "2 39585  74.0411 307.2584 0065405  69.0888 291.7262 14.58655096624759"
      },
      "geometry": {
        "type": "Point",
        "coordinates": [
          136.71583601440554,
          -38.570821403051646
        ]
      }
    }
  ]
}